satname,norad_id,inclination_deg,eccentricity,mean_motion_rev_per_day,perigee_km,apogee_km,l1,l2
STARLINK-1360,45588,53.0415,0.0003435,15.85142435,313.6242945455724,318.22311424949476,1 45588U 20025BK  25336.91670139  .00208619  00000+0  84670-3 0  9997,2 45588  53.0415  38.0790 0003435 357.4724  53.5903 15.85142435  6036
STARLINK-1364,45589,53.0545,0.0001522,15.06396399,546.16855477634,548.2766342369077,1 45589U 20025BL  25336.75645522  .00000407  00000+0  46254-4 0  9990,2 45589  53.0545 151.7730 0001522  85.1399 274.9763 15.06396399310894
STARLINK-1365,45590,53.0533,0.0001683,15.06394977,546.0614139993622,548.3924915058578,1 45590U 20025BM  25336.83846877 -.00000042  00000+0  16106-4 0  9996,2 45590  53.0533 181.3978 0001683  93.9720 266.1461 15.06394977310505
STARLINK-1443,45660,53.0542,0.0001402,15.06400018,546.2405689107818,548.1824366309584,1 45660U 20035D   25336.69102684  .00000733  00000+0  68130-4 0  9990,2 45660  53.0542 142.0635 0001402  87.4071 272.7078 15.06400018304114
STARLINK-1446,45663,53.026,3.59e-05,15.36609885,455.89751868662097,456.3882199812397,1 45663U 20035G   25336.61631100  .00035600  00000+0  98759-3 0  9995,2 45663  53.0260  98.7149 0000359 315.2858  44.8115 15.36609885304718
STARLINK-1448,45665,53.0537,0.0001349,15.06396985,546.2865677274331,548.1550292614675,1 45665U 20035J   25336.76105709  .00001002  00000+0  86173-4 0  9991,2 45665  53.0537 141.7441 0001349  87.7720 272.3423 15.06396985304115
STARLINK-1451,45668,53.0527,0.0001291,15.0639518,546.3322661774819,548.1203949894398,1 45668U 20035M   25336.69843613  .00000261  00000+0  36426-4 0  9991,2 45668  53.0527 142.3462 0001291  90.4567 269.6570 15.06395180304111
STARLINK-1452,45669,53.0372,0.0008958,15.3033389,468.67645246567463,480.9542018550146,1 45669U 20035N   25336.91670139  .00109913  00000+0  36497-2 0  9998,2 45669  53.0372 117.3105 0008958 125.6444 150.9505 15.30333890  5540
STARLINK-1453,45670,53.0553,0.0001417,15.12623825,527.2232376874808,529.180494122078,1 45670U 20035P   25336.65397958  .00006603  00000+0  39017-3 0  9990,2 45670  53.0553 111.6585 0001417  66.2265 293.8875 15.12623825304422
STARLINK-1454,45671,53.0528,0.0001323,15.06413486,546.2540074530261,548.08644374492,1 45671U 20035Q   25336.78686597  .00002743  00000+0  20289-3 0  9997,2 45671  53.0528 141.6345 0001323  94.9776 265.1364 15.06413486304117
STARLINK-1456,45673,53.0528,0.0001264,15.06412483,546.2979403834834,548.0486588272242,1 45673U 20035S   25336.73526164  .00002790  00000+0  20608-3 0  9994,2 45673  53.0528 141.8667 0001264 109.9133 250.1992 15.06412483304124
STARLINK-1457,45674,53.0512,0.0001967,15.45684094,428.0297023313342,430.7077750889439,1 45674U 20035T   25336.91670139  .00185706  00000+0  37054-2 0  9998,2 45674  53.0512 134.8297 0001967 274.1411 251.6277 15.45684094  5855
STARLINK-1458,45675,53.0545,0.0001389,15.06401103,546.246246959061,548.1701078493443,1 45675U 20035U   25336.73157218  .00000585  00000+0  58172-4 0  9994,2 45675  53.0545 141.8803 0001389  87.6525 272.4623 15.06401103304082
STARLINK-1460,45676,53.0539,0.0001275,15.06398255,546.333923494085,548.0998887401447,1 45676U 20035V   25336.76842610  .00000552  00000+0  55955-4 0  9995,2 45676  53.0539 141.7118 0001275  80.9970 279.1163 15.06398255304084
STARLINK-1392,45677,53.0546,0.0001354,15.06393929,546.2924700272761,548.1678594554887,1 45677U 20035W   25336.77949051  .00001052  00000+0  89528-4 0  9993,2 45677  53.0546 141.6680 0001354  91.1450 268.9694 15.06393929304124
STARLINK-1394,45679,53.0542,0.0001271,15.06395164,546.3461659358672,548.1065933069676,1 45679U 20035Y   25336.71037590  .00000374  00000+0  43981-4 0  9994,2 45679  53.0542 131.9759 0001271  88.7633 271.3502 15.06395164304257
STARLINK-1402,45685,53.0516,0.0003011,15.30382363,472.607240068608,476.73400081763884,1 45685U 20035AE  25336.83924499  .00084698  00000+0  28230-2 0  9996,2 45685  53.0516 119.1511 0003011 218.1813 141.8973 15.30382363304451
STARLINK-1404,45686,53.0561,0.0001424,15.06395844,546.2381240605073,548.2104669574692,1 45686U 20035AF  25336.66983119  .00000154  00000+0  29230-4 0  9990,2 45686  53.0561 132.1613 0001424  93.1259 266.9893 15.06395844304250
STARLINK-1413,45689,53.0552,0.0001385,15.0639108,546.2797320267873,548.1980611501422,1 45689U 20035AJ  25336.75461397  .00000788  00000+0  71822-4 0  9999,2 45689  53.0552 131.7758 0001385  89.2530 270.8617 15.06391080304179
STARLINK-1417,45693,53.0515,8.36e-05,15.07050662,544.6392976530788,545.7968826241486,1 45693U 20035AN  25336.74776147  .00034054  00000+0  22541-2 0  9990,2 45693  53.0515 131.7754 0000836 139.7014 220.4037 15.07050662304252
STARLINK-1420,45695,53.0547,0.0001219,15.06395423,546.3813841203764,548.069787518798,1 45695U 20035AQ  25336.68547485  .00001570  00000+0  12430-3 0  9990,2 45695  53.0547 112.0766 0001219  86.7667 273.3461 15.06395423304530
STARLINK-1422,45696,53.054,0.0001415,15.06395568,546.2452026702458,548.2050801562664,1 45696U 20035AR  25336.69563591  .00001061  00000+0  90119-4 0  9994,2 45696  53.0540 132.0435 0001415  90.5890 269.5261 15.06395568304241
STARLINK-1351,45697,53.0548,0.0001208,15.06390886,546.4029056963218,548.0760766565891,1 45697U 20035AS  25336.67167822  .00000113  00000+0  26504-4 0  9994,2 45697  53.0548 112.1504 0001208  90.9244 269.1883 15.06390886304539
STARLINK-1398,45699,53.0489,0.0001734,15.56542762,396.4967899116382,398.84664037404946,1 45699U 20035AU  25336.53465258  .00054883  00000+0  76108-3 0  9992,2 45699  53.0489  61.5045 0001734 238.9018 121.1823 15.56542762305235
STARLINK-1400,45700,53.0556,0.0001323,15.0639237,546.3187161800179,548.1511695961053,1 45700U 20035AV  25336.64587464  .00000309  00000+0  39654-4 0  9991,2 45700  53.0556 112.2639 0001323  92.5534 267.5606 15.06392370304525
STARLINK-1403,45701,53.055,0.0001192,15.063943,546.4035240419144,548.0545313029115,1 45701U 20035AW  25336.67536231 -.00000122  00000+0  10693-4 0  9997,2 45701  53.0550 112.1331 0001192  88.1922 271.9203 15.06394300304521
STARLINK-1407,45703,53.0414,0.0009659,15.44579404,426.0356860979973,439.192695248139,1 45703U 20035AY  25336.54412127  .00027369  00000+0  58563-3 0  9990,2 45703  53.0414  62.9414 0009659 156.9016 203.2425 15.44579404305213
STARLINK-1411,45706,53.0508,0.000175,15.44861832,430.59234553295664,432.9758179115606,1 45706U 20035BB  25336.55859161  .00056943  00000+0  11944-2 0  9998,2 45706  53.0508  90.1081 0001750 341.4136  18.6806 15.44861832304827
STARLINK-1423,45710,53.0541,0.0001276,15.06393832,546.3467851462701,548.1141389225804,1 45710U 20035BF  25336.70116388  .00000645  00000+0  62192-4 0  9998,2 45710  53.0541 112.0172 0001276  84.7273 275.3862 15.06393832304536
STARLINK-1433,45711,53.0553,0.0001303,15.06392481,546.3322267663671,548.1369786060268,1 45711U 20035BG  25336.68273520 -.00000075  00000+0  13860-4 0  9994,2 45711  53.0553 112.0986 0001303  87.8412 272.2726 15.06392481304526
STARLINK-1434,45712,53.0474,0.0004721,15.17684973,509.5860015141234,516.0924612718045,1 45712U 20035BH  25336.62911757  .00064799  00000+0  31633-2 0  9998,2 45712  53.0474 106.2186 0004721 162.3395 197.7763 15.17684973304616
STARLINK-1465,45731,53.0548,0.0001594,15.06398569,546.1120424914134,548.3198450098807,1 45731U 20038B   25336.64955795  .00003252  00000+0  23711-3 0  9990,2 45731  53.0548 312.2471 0001594  92.2020 267.9151 15.06398569301569
STARLINK-1471,45735,53.0503,0.0001687,15.4256414,437.39480716967955,439.69475560271894,1 45735U 20038F   25336.44739639  .00025376  00000+0  58271-3 0  9999,2 45735  53.0503 245.4546 0001687  91.7588 268.3610 15.42564140302498
STARLINK-1474,45738,53.0337,0.0003358,15.73362587,347.0355992259847,351.553742336082,1 45738U 20038J   25336.86392543  .00105608  00000+0  74200-3 0  9994,2 45738  53.0337 194.1130 0003358 110.4999 249.6380 15.73362587303242
STARLINK-1475,45739,53.0397,0.0001867,16.01574495,268.81671930919674,271.2991552987851,1 45739U 20038K   25336.68926939  .00677182  22309-3  11843-2 0  9991,2 45739  53.0397 157.2771 0001867 260.6366  99.4453 16.01574495303752
STARLINK-1480,45741,53.056,0.0001422,15.06396708,546.2368614628485,548.2064334621864,1 45741U 20038M   25336.63113456 -.00000982  00000+0 -47067-4 0  9990,2 45741  53.0560 312.3291 0001422  94.9852 265.1300 15.06396708301577
STARLINK-1500,45744,53.0398,0.0001823,15.29257318,476.7813142708701,479.28107319430546,1 45744U 20038Q   25336.27823451  .00029188  00000+0  10228-2 0  9990,2 45744  53.0398 287.7479 0001823  16.2388 343.8669 15.29257318301882
STARLINK-1504,45746,53.0273,0.000326,15.43411648,433.8277074519947,438.27055681014554,1 45746U 20038S   25336.46201059  .00040984  00000+0  90720-3 0  9990,2 45746  53.0273 248.3936 0003260  61.5737 298.5596 15.43411648302447
STARLINK-1506,45747,53.0665,0.0002627,15.22691257,495.9206135393233,499.5331924339516,1 45747U 20038T   25336.30437135  .00046866  00000+0  19870-2 0  9991,2 45747  53.0665 291.6665 0002627   9.0197 351.0846 15.22691257301834
STARLINK-1464,45751,53.0544,0.0001427,15.0639695,546.2326571916155,548.209154337922,1 45751U 20038X   25336.83202073  .00002115  00000+0  16086-3 0  9991,2 45751  53.0544 291.4289 0001427  85.0834 275.0318 15.06396950301882
STARLINK-1477,45754,53.0538,0.0005583,15.08551558,536.7624363162431,544.4879261678179,1 45754U 20038AA  25336.62156497  .00038356  00000+0  24332-2 0  9997,2 45754  53.0538 292.0960 0005583  69.1413 291.0174 15.08551558301858
STARLINK-1478,45755,53.0548,0.0001347,15.0638893,546.3126370807995,548.1783351225558,1 45755U 20038AB  25336.59981375  .00003016  00000+0  22136-3 0  9991,2 45755  53.0548 292.4680 0001347 110.7456 249.3677 15.06388930301839
STARLINK-1484,45756,53.0131,0.0002838,15.67653545,363.7040919382034,367.531847258947,1 45756U 20038AC  25336.84752808  .00103813  00000+0  92569-3 0  9990,2 45756  53.0131 183.5229 0002838 134.2450 225.8798 15.67653545303387
